     2.10           N: GPS NAV DATA                         RINEX VERSION / TYPE
teqc  2010Oct21                         20150102 01:10:25UTCPGM / RUN BY / DATE
     0                                                      LEAP SECONDS
MSXP|IAx86-PII|bcc32 5.0|MSWin95->XP|486/DX+                COMMENT
                                                            END OF HEADER
31 15  1  1 16  0  0.0 3.263223916292D-04-7.958078640513D-13 0.000000000000D+00
    7.600000000000D+01 7.356250000000D+01 4.296250384645D-09-2.264001843416D+00
    3.911554813385D-06 8.310479577631D-03 2.879649400711D-06 5.153701780319D+03
    4.032000000000D+05-8.754432201385D-08-2.413456905939D+00 5.401670932770D-08
    9.766965699611D-01 3.367187500000D+02-5.856378290463D-01-8.173554747077D-09
    1.450060400836D-10 0.000000000000D+00 1.825000000000D+03 0.000000000000D+00
    2.000000000000D+00 0.000000000000D+00-1.350417733192D-08 7.600000000000D+01
    3.960000000000D+05 4.000000000000D+00
 7 15  1  1 16  0  0.0 4.276321269572D-04 3.410605131648D-12 0.000000000000D+00
    7.200000000000D+01 8.121875000000D+01 4.369110562421D-09-2.181583024010D+00
    4.101544618607D-06 7.960910443217D-03 2.581626176834D-06 5.153741247177D+03
    4.032000000000D+05-4.842877388000D-08-2.420568311643D+00-9.685754776001D-08
    9.717948274067D-01 3.371562500000D+02-2.750844295615D+00-8.179269270825D-09
    2.460816788611D-10 0.000000000000D+00 1.825000000000D+03 0.000000000000D+00
    2.000000000000D+00 0.000000000000D+00-1.117587089539D-08 7.200000000000D+01
    3.969300000000D+05 4.000000000000D+00
21 15  1  1 16  0  0.0-4.036193713546D-04-2.273736754432D-12 0.000000000000D+00
    3.600000000000D+01 1.106250000000D+01 5.397724836905D-09 3.065477717886D+00
    3.632158041000D-07 2.193697472103D-02 6.070360541344D-06 5.153632902145D+03
    4.032000000000D+05 2.328306436539D-07 6.838683278723D-01-3.091990947723D-07
    9.332549586607D-01 2.460000000000D+02-1.964417137584D+00-8.087479733136D-09
    3.710868858297D-10 0.000000000000D+00 1.825000000000D+03 0.000000000000D+00
    2.000000000000D+00 0.000000000000D+00-1.164153218269D-08 3.600000000000D+01
    3.986400000000D+05 4.000000000000D+00
30 15  1  1 16  0  0.0-8.617108687758D-05-4.547473508865D-13 0.000000000000D+00
    3.200000000000D+01 7.684375000000D+01 4.733768609035D-09-2.323035690572D+00
    3.911554813385D-06 9.768634336069D-04 2.155080437660D-06 5.153624908447D+03
    4.032000000000D+05-3.539025783539D-08-2.369179155033D+00 2.235174179077D-08
    9.574462811150D-01 3.370312500000D+02-3.132983506504D+00-8.444280309598D-09
    1.578637185147D-10 0.000000000000D+00 1.825000000000D+03 0.000000000000D+00
    2.000000000000D+00 0.000000000000D+00 3.259629011154D-09 3.200000000000D+01
    3.993000000000D+05 4.000000000000D+00
13 15  1  1 16  0  0.0-7.482664659619D-05-3.410605131648D-12 0.000000000000D+00
    8.600000000000D+01 8.943750000000D+01 3.998380834325D-09-1.462120427573D+00
    4.677101969719D-06 5.863415077329D-03 1.025944948196D-05 5.155889907837D+03
    4.032000000000D+05-1.210719347000D-07 2.900551098544D+00-3.725290298462D-08
    9.757681509458D-01 1.870000000000D+02 2.200161707646D+00-7.758537459942D-09
   -1.067901625246D-10 0.000000000000D+00 1.825000000000D+03 0.000000000000D+00
    2.000000000000D+00 0.000000000000D+00-1.117587089539D-08 8.600000000000D+01
    3.995400000000D+05 4.000000000000D+00
 7 15  1  1 15 59 44.0 4.276316612959D-04 3.410605131648D-12 0.000000000000D+00
    1.200000000000D+01 8.121875000000D+01 4.369110562421D-09-2.183916098929D+00
    4.101544618607D-06 7.960910559632D-03 2.581626176834D-06 5.153741247177D+03
    4.031840000000D+05-4.842877388000D-08-2.420568172666D+00-9.685754776001D-08
    9.717948098517D-01 3.371562500000D+02-2.750844844209D+00-8.179269270825D-09
    2.460816788611D-10 0.000000000000D+00 1.825000000000D+03 0.000000000000D+00
    2.000000000000D+00 0.000000000000D+00-1.117587089539D-08 1.200000000000D+01
    4.006800000000D+05 4.000000000000D+00
26 15  1  1 16  0  0.0-1.774462871253D-04-1.330136001343D-11 0.000000000000D+00
    1.600000000000D+01 8.753125000000D+01 4.188031591183D-09-6.888057553874D-01
    4.794448614120D-06 2.144887298346D-02 1.025572419167D-05 5.153690244675D+03
    4.032000000000D+05-2.086162567139D-07 2.890819742611D+00 2.551823854446D-07
    9.731149705331D-01 1.915000000000D+02 1.300635706298D+00-8.145696443810D-09
   -1.046472161195D-10 0.000000000000D+00 1.825000000000D+03 0.000000000000D+00
    2.000000000000D+00 0.000000000000D+00-6.519258022308D-09 1.600000000000D+01
    4.021200000000D+05 4.000000000000D+00
 2 15  1  1 18  0  0.0 5.393233150244D-04 2.273736754432D-12 0.000000000000D+00
    9.300000000000D+01 1.512500000000D+01 5.467013437339D-09 6.121607620386D-02
    8.586794137955D-07 1.412471907679D-02 6.636604666710D-06 5.153732563019D+03
    4.104000000000D+05-1.117587089539D-08 6.681128683941D-01 2.030283212662D-07
    9.402586892057D-01 2.438750000000D+02-2.348313908494D+00-8.603929816784D-09
    4.253748614275D-10 0.000000000000D+00 1.825000000000D+03 0.000000000000D+00
    2.000000000000D+00 0.000000000000D+00-2.048909664154D-08 9.300000000000D+01
    4.032000000000D+05 4.000000000000D+00
 5 15  1  1 18  0  0.0-2.985349856317D-04 5.002220859751D-12 0.000000000000D+00
    8.100000000000D+01-2.631250000000D+01 5.207716922313D-09 2.378756478858D+00
   -1.354143023491D-06 4.037300823256D-03 7.737427949905D-06 5.153740028381D+03
    4.104000000000D+05-9.126961231232D-08 1.738100928252D+00-4.842877388000D-08
    9.462600750960D-01 2.243437500000D+02 4.211303415862D-01-8.196769999800D-09
   -4.739483132782D-10 0.000000000000D+00 1.825000000000D+03 0.000000000000D+00
    2.000000000000D+00 0.000000000000D+00-1.071020960808D-08 8.100000000000D+01
    4.032000000000D+05 4.000000000000D+00
 7 15  1  1 17 59 44.0 4.276563413441D-04 3.410605131648D-12 0.000000000000D+00
    1.300000000000D+01 7.409375000000D+01 4.371610666560D-09-1.133678157286D+00
    3.807246685028D-06 7.961161434650D-03 2.626329660416D-06 5.153742687225D+03
    4.103840000000D+05 1.527369022369D-07-2.420626449471D+00-1.471489667892D-07
    9.717959875007D-01 3.352187500000D+02-2.750944749811D+00-8.259629761019D-09
    1.028614274485D-10 0.000000000000D+00 1.825000000000D+03 0.000000000000D+00
    2.000000000000D+00 0.000000000000D+00-1.117587089539D-08 1.300000000000D+01
    4.032000000000D+05 4.000000000000D+00
 8 15  1  1 18  0  0.0 1.695472747087D-05 1.136868377216D-13 0.000000000000D+00
    8.100000000000D+01 5.181250000000D+01 4.074455431709D-09 5.103469448559D-02
    2.816319465637D-06 1.476720732171D-02 2.630054950714D-06 5.152197694778D+03
    4.104000000000D+05 1.993030309677D-07-2.316381259514D+00 1.452863216400D-07
    9.952500665373D-01 3.477812500000D+02-2.676394033411D+00-8.292488272565D-09
    4.714482091388D-11 0.000000000000D+00 1.825000000000D+03 0.000000000000D+00
    2.000000000000D+00 6.300000000000D+01-4.656612873077D-09 8.100000000000D+01
    4.032000000000D+05 4.000000000000D+00
 9 15  1  1 18  0  0.0-4.290370270610D-05-1.045918907039D-11 0.000000000000D+00
    4.900000000000D+01 9.740625000000D+01 4.259463138023D-09 9.999855191936D-01
    4.902482032776D-06 2.597467973828D-04 1.080520451069D-05 5.153689676285D+03
    4.104000000000D+05-2.235174179077D-08 2.787727547151D+00-5.587935447693D-09
    9.588882794657D-01 1.678125000000D+02 2.451121886768D+00-7.863541833795D-09
   -2.103659054415D-10 0.000000000000D+00 1.825000000000D+03 0.000000000000D+00
    2.000000000000D+00 0.000000000000D+00 4.656612873077D-10 4.900000000000D+01
    4.032000000000D+05 4.000000000000D+00
10 15  1  1 18  0  0.0-1.569068990648D-04-1.818989403546D-12 0.000000000000D+00
    1.600000000000D+01-2.687500000000D+01 5.186644615996D-09 2.710422698751D+00
   -1.545995473862D-06 1.448578480631D-02 7.867813110352D-06 5.153643768311D+03
    4.104000000000D+05 1.676380634308D-08 1.754068171454D+00-2.291053533554D-07
    9.410577277460D-01 2.156250000000D+02 9.140665790449D-01-8.009976504816D-09
   -5.068068248242D-10 0.000000000000D+00 1.825000000000D+03 0.000000000000D+00
    2.000000000000D+00 0.000000000000D+00-3.259629011154D-09 1.600000000000D+01
    4.032000000000D+05 4.000000000000D+00
13 15  1  1 18  0  0.0-7.485132664442D-05-3.410605131648D-12 0.000000000000D+00
    9.200000000000D+01 9.871875000000D+01 3.980880105350D-09-4.130100885565D-01
    5.204230546951D-06 5.864573991857D-03 1.090951263905D-05 5.155893789291D+03
    4.104000000000D+05-2.980232238770D-08 2.900494768884D+00-5.215406417847D-08
    9.757675409090D-01 1.756562500000D+02 2.199873787813D+00-7.796039022032D-09
   -5.964534161075D-11 0.000000000000D+00 1.825000000000D+03 0.000000000000D+00
    2.000000000000D+00 0.000000000000D+00-1.117587089539D-08 9.200000000000D+01
    4.032000000000D+05 4.000000000000D+00
16 15  1  1 18  0  0.0-1.684897579253D-04 3.069544618484D-12 0.000000000000D+00
    4.700000000000D+01-9.225000000000D+01 3.853731951976D-09 2.568449031469D+00
   -4.792585968971D-06 7.882299833000D-03 5.153939127922D-06 5.153723731995D+03
    4.104000000000D+05-1.322478055954D-07-1.335268498287D+00-7.450580596924D-09
    9.893779060525D-01 2.971875000000D+02 2.286079714453D-01-7.857112994580D-09
   -2.321525272275D-10 0.000000000000D+00 1.825000000000D+03 0.000000000000D+00
    2.000000000000D+00 0.000000000000D+00-1.024454832077D-08 4.700000000000D+01
    4.032000000000D+05 4.000000000000D+00
